OBJECT_NAME,OBJECT_ID,EPOCH,MEAN_MOTION,ECCENTRICITY,INCLINATION,RA_OF_ASC_NODE,ARG_OF_PERICENTER,MEAN_ANOMALY,EPHEMERIS_TYPE,CLASSIFICATION_TYPE,NORAD_CAT_ID,ELEMENT_SET_NO,REV_AT_EPOCH,BSTAR,MEAN_MOTION_DOT,MEAN_MOTION_DDOT
ALOS-2,2014-029A,2026-07-20T18:03:53.292960,14.79473928,.00015881,97.9225,298.4370,91.3293,268.8100,0,U,39766,999,65654,.82710118E-4,.566E-5,0
KAZEOSAT 2,2014-033A,2026-07-21T07:32:05.216928,14.85505312,.00078465,97.5398,40.1206,196.6341,163.4618,0,U,40010,999,65402,.83064584E-4,.667E-5,0
HODOYOSHI-4,2014-033B,2026-07-21T07:49:01.803648,14.88195644,.00232376,97.5466,25.5031,188.6703,171.4116,0,U,40011,999,65388,.76471802E-4,.656E-5,0
DEIMOS-2,2014-033D,2026-07-21T06:42:03.297312,14.93809634,.00015298,97.5782,75.5632,103.5145,256.6246,0,U,40013,999,64281,.1389028E-3,.1419E-4,0
HODOYOSHI-3,2014-033F,2026-07-20T22:24:23.442624,14.85444729,.00314614,97.6454,3.6234,242.1285,117.6742,0,U,40015,999,65263,.81152776E-4,.652E-5,0
SPOT 7,2014-034A,2026-07-21T06:55:51.123360,14.60983738,.00016456,98.0606,263.8988,95.1600,264.9789,0,U,40053,999,64211,.34737088E-4,.125E-5,0
SKYSAT-B,2014-037D,2026-07-21T03:35:23.112384,14.88101239,.0005991,98.3858,163.0566,154.4233,205.7280,0,U,40072,999,65101,.95543822E-4,.818E-5,0
WORLDVIEW-3 (WV-3),2014-048A,2026-07-21T06:16:08.589792,14.85070297,.00017367,97.8551,276.6219,146.8236,213.3088,0,U,40115,999,64696,.69197682E-4,.538E-5,0
GAOFEN-2,2014-049A,2026-07-21T07:08:33.798624,14.80932490,.00086203,98.0088,266.4695,117.8769,242.3318,0,U,40118,999,64428,.44315595E-4,.289E-5,0
YAOGAN-21,2014-053A,2026-07-21T07:29:56.520672,15.26809770,.0006945,97.1458,241.0898,345.4355,14.6684,0,U,40143,999,66016,.18751524E-3,.4873E-4,0
YAOGAN-22,2014-063A,2026-07-21T04:19:55.091136,13.15531627,.00069042,100.7770,354.0246,112.9711,247.2129,0,U,40275,999,56428,-.7729819E-5,-.5E-6,0
ASNARO,2014-070A,2026-07-21T06:27:12.116736,15.19431173,.00046005,97.3434,277.4648,75.0198,285.1546,0,U,40298,999,64918,.22051367E-3,.4606E-4,0
YAOGAN-24,2014-072A,2026-07-21T07:31:40.034784,14.76121882,.0015087,98.1536,339.9436,150.6081,209.5980,0,U,40310,999,62875,.11696772E-4,.28E-6,0
CBERS 4,2014-079A,2026-07-21T07:55:52.060224,14.35517019,.00005767,98.3509,258.0876,73.9223,286.2027,0,U,40336,999,60885,.15075773E-4,.1E-7,0
YAOGAN-26,2014-088A,2026-07-21T06:20:16.798848,15.48611655,.00010633,97.0660,201.7081,290.7059,69.4079,0,U,40362,999,64297,.36088652E-3,.19196E-3,0
SMAP,2015-003A,2026-07-21T06:25:32.504448,14.63392455,.00016349,98.1286,208.8812,92.6352,267.5037,0,U,40376,999,61260,.61328272E-4,.27E-5,0
KOMPSAT-3A,2015-014A,2026-07-21T06:52:39.955584,15.55689910,.00553484,97.6903,196.1881,54.1398,306.4977,0,U,40536,999,62711,.36871691E-3,.271E-3,0
SENTINEL-2A,2015-028A,2026-07-21T06:29:44.359584,14.30815111,.000131,98.5668,276.6364,98.6114,261.5218,0,U,40697,999,57860,-.20402729E-4,-.97E-6,0
GAOFEN-8,2015-030A,2026-07-21T07:33:29.420640,15.47089342,.00098036,97.6904,37.7618,76.7785,283.4557,0,U,40701,999,61672,.20701047E-3,.10403E-3,0
CARBONITE 1 (CBNT-1),2015-032D,2026-07-21T07:24:48.807936,14.83676292,.00144529,97.6531,18.9513,176.5120,183.6198,0,U,40718,999,59440,.86531421E-4,.665E-5,0
YAOGAN-27,2015-040A,2026-07-21T05:42:35.298720,13.16073811,.00087571,100.1182,187.1460,131.8026,228.3837,0,U,40878,999,52214,.15987195E-2,.565E-5,0
GAOFEN-9 01,2015-047A,2026-07-21T06:33:07.894656,14.82942611,.00280212,97.6263,236.4173,31.2252,329.0620,0,U,40894,999,58524,.8801623E-4,.668E-5,0
YAOGAN-28,2015-064A,2026-07-21T07:39:09.567936,15.27809412,.0011926,97.3115,339.9027,74.1469,286.1084,0,U,41026,999,59589,.20658286E-3,.5548E-4,0
YAOGAN-29,2015-069A,2026-07-21T05:58:23.989728,14.83110502,.00000974,98.0021,230.9338,47.1565,312.9657,0,U,41038,999,57567,.72023014E-4,.533E-5,0
KENT RIDGE 1,2015-077B,2026-07-20T19:42:16.708608,15.23302681,.00082666,14.9808,15.8171,354.2128,5.8098,0,U,41167,999,58623,.71463069E-4,.2508E-4,0
GAOFEN-4,2015-083A,2026-07-20T06:47:15.871776,1.00270897,.00041678,0.4407,83.8785,121.8602,299.8332,0,U,41194,999,3886,0,-.337E-5,0
JASON-3,2016-002A,2026-07-21T06:07:27.377472,12.87628894,.00081322,66.0416,54.2111,270.3174,89.6913,0,U,41240,999,49163,.22539135E-4,-.57E-6,0
SENTINEL-3A,2016-011A,2026-07-21T05:30:31.477536,14.26740922,.00013057,98.6232,269.1213,88.8236,271.3094,0,U,41335,999,54291,.39132581E-4,.51E-6,0
ZIYUAN 3-02 (ZY 3-02),2016-033A,2026-07-21T03:05:29.953824,15.21470216,.0014694,97.3819,277.2507,164.6799,195.4885,0,U,41556,999,56314,.16139505E-3,.3568E-4,0
CARTOSAT-2C,2016-040A,2026-07-21T07:26:12.762816,15.19290881,.00088702,97.4458,261.8149,25.9945,334.1733,0,U,41599,999,55889,.13398845E-3,.2761E-4,0
