ALOS-2                  
1 39766U 14029A   26201.75270015  .00000566  00000+0  82710-4 0  9993
2 39766  97.9225 298.4370 0001588  91.3293 268.8100 14.79473928656544
KAZEOSAT 2              
1 40010U 14033A   26202.31394927  .00000667  00000+0  83065-4 0  9990
2 40010  97.5398  40.1206 0007846 196.6341 163.4618 14.85505312654026
HODOYOSHI-4             
1 40011U 14033B   26202.32571532  .00000656  00000+0  76472-4 0  9993
2 40011  97.5466  25.5031 0023237 188.6703 171.4116 14.88195644653882
DEIMOS-2                
1 40013U 14033D   26202.27920483  .00001419  00000+0  13890-3 0  9994
2 40013  97.5782  75.5632 0001529 103.5145 256.6246 14.93809634642811
HODOYOSHI-3             
1 40015U 14033F   26201.93360466  .00000652  00000+0  81153-4 0  9993
2 40015  97.6454   3.6234 0031461 242.1285 117.6742 14.85444729652632
SPOT 7                  
1 40053U 14034A   26202.28878615  .00000125  00000+0  34737-4 0  9996
2 40053  98.0606 263.8988 0001645  95.1600 264.9789 14.60983738642112
SKYSAT-B                
1 40072U 14037D   26202.14957306  .00000818  00000+0  95544-4 0  9992
2 40072  98.3858 163.0566 0005991 154.4233 205.7280 14.88101239651013
WORLDVIEW-3 (WV-3)      
1 40115U 14048A   26202.26121053  .00000538  00000+0  69198-4 0  9992
2 40115  97.8551 276.6219 0001736 146.8236 213.3088 14.85070297646967
GAOFEN-2                
1 40118U 14049A   26202.29761341  .00000289  00000+0  44316-4 0  9997
2 40118  98.0088 266.4695 0008620 117.8769 242.3318 14.80932490644289
YAOGAN-21               
1 40143U 14053A   26202.31245973  .00004873  00000+0  18752-3 0  9998
2 40143  97.1458 241.0898 0006945 345.4355  14.6684 15.26809770660166
YAOGAN-22               
1 40275U 14063A   26202.18049874 -.00000050  00000+0 -77298-5 0  9999
2 40275 100.7770 354.0246 0006904 112.9711 247.2129 13.15531627564283
ASNARO                  
1 40298U 14070A   26202.26889024  .00004606  00000+0  22051-3 0  9994
2 40298  97.3434 277.4648 0004600  75.0198 285.1546 15.19431173649187
YAOGAN-24               
1 40310U 14072A   26202.31365781  .00000028  00000+0  11697-4 0  9995
2 40310  98.1536 339.9436 0015087 150.6081 209.5980 14.76121882628752
CBERS 4                 
1 40336U 14079A   26202.33046366  .00000001  00000+0  15076-4 0  9993
2 40336  98.3509 258.0876 0000576  73.9223 286.2027 14.35517019608852
YAOGAN-26               
1 40362U 14088A   26202.26408332  .00019196  00000+0  36089-3 0  9990
2 40362  97.0660 201.7081 0001063 290.7059  69.4079 15.48611655642971
SMAP                    
1 40376U 15003A   26202.26773732  .00000270  00000+0  61328-4 0  9990
2 40376  98.1286 208.8812 0001634  92.6352 267.5037 14.63392455612603
KOMPSAT-3A              
1 40536U 15014A   26202.28657356  .00027100  00000+0  36872-3 0  9991
2 40536  97.6903 196.1881 0055348  54.1398 306.4977 15.55689910627115
SENTINEL-2A             
1 40697U 15028A   26202.27065231 -.00000097  00000+0 -20403-4 0  9990
2 40697  98.5668 276.6364 0001310  98.6114 261.5218 14.30815111578604
GAOFEN-8                
1 40701U 15030A   26202.31492385  .00010403  00000+0  20701-3 0  9998
2 40701  97.6904  37.7618 0009803  76.7785 283.4557 15.47089342616720
CARBONITE 1 (CBNT-1)    
1 40718U 15032D   26202.30889824  .00000665  00000+0  86531-4 0  9998
2 40718  97.6531  18.9513 0014452 176.5120 183.6198 14.83676292594404
YAOGAN-27               
1 40878U 15040A   26202.23790855  .00000565  00000+0  15987-2 0  9995
2 40878 100.1182 187.1460 0008757 131.8026 228.3837 13.16073811522145
GAOFEN-9 01             
1 40894U 15047A   26202.27300804  .00000668  00000+0  88016-4 0  9994
2 40894  97.6263 236.4173 0028021  31.2252 329.0620 14.82942611585248
YAOGAN-28               
1 41026U 15064A   26202.31886074  .00005548  00000+0  20658-3 0  9993
2 41026  97.3115 339.9027 0011926  74.1469 286.1084 15.27809412595898
YAOGAN-29               
1 41038U 15069A   26202.24888877  .00000533  00000+0  72023-4 0  9999
2 41038  98.0021 230.9338 0000097  47.1565 312.9657 14.83110502575678
KENT RIDGE 1            
1 41167U 15077B   26201.82102672  .00002508  00000+0  71463-4 0  9997
2 41167  14.9808  15.8171 0008266 354.2128   5.8098 15.23302681586236
GAOFEN-4                
1 41194U 15083A   26201.28282259 -.00000337  00000+0  00000+0 0  9997
2 41194   0.4407  83.8785 0004167 121.8602 299.8332  1.00270897 38868
JASON-3                 
1 41240U 16002A   26202.25517798 -.00000057  00000+0  22539-4 0  9993
2 41240  66.0416  54.2111 0008132 270.3174  89.6913 12.87628894491632
SENTINEL-3A             
1 41335U 16011A   26202.22953099  .00000051  00000+0  39133-4 0  9994
2 41335  98.6232 269.1213 0001305  88.8236 271.3094 14.26740922542910
ZIYUAN 3-02 (ZY 3-02)   
1 41556U 16033A   26202.12881891  .00003568  00000+0  16140-3 0  9990
2 41556  97.3819 277.2507 0014694 164.6799 195.4885 15.21470216563144
CARTOSAT-2C             
1 41599U 16040A   26202.30986994  .00002761  00000+0  13399-3 0  9992
2 41599  97.4458 261.8149 0008870  25.9945 334.1733 15.19290881558898
